{
  "type": "FeatureCollection",
  "features": [
    {
      "type": "Feature",
      "properties": {
        "norad_id": 36828,
        "name": "BEIDOU-2 IGSO-1 (C06)",
        "group": "beidou",
        "lat": 15.342687002998726,
        "lon": 175.9068249251484,
        "alt_km": 35991.63327016205,
        "timestamp": "2025-12-25T22:42:17.276460+00:00",
        "meta_object_name": "BEIDOU-2 IGSO-1 (C06)",
        "meta_object_id": "2010-036A",
        "meta_epoch": "2025-12-20T21:47:26.739168",
        "meta_mean_motion": 1.00282395,
        "meta_eccentricity": 0.0051798,
        "meta_inclination": 54.2882,
        "meta_ra_of_asc_node": 164.5739,
        "meta_arg_of_pericenter": 215.2932,
        "meta_mean_anomaly": 144.6604,
        "meta_ephemeris_type": 0,
        "meta_classification_type": "U",
        "meta_norad_cat_id": 36828,
        "meta_element_set_no": 999,
        "meta_rev_at_epoch": 5631,
        "meta_bstar": 0,
        "meta_mean_motion_dot": -5.5e-07,
        "meta_mean_motion_ddot": 0,
        "tle_line1": "1 36828U 10036A   25354.90794837 -.00000055  00000+0  00000+0 0  9992",
        "tle_line2": "2 36828  54.2882 164.5739 0051798 215.2932 144.6604  1.00282395 56317"
      },
      "geometry": {
        "type": "Point",
        "coordinates": [
          175.9068249251484,
          15.342687002998726
        ]
      }
    },
    {
      "type": "Feature",
      "properties": {
        "norad_id": 37210,
        "name": "BEIDOU-2 G4 (C04)",
        "group": "beidou",
        "lat": 0.798727686314029,
        "lon": -124.68626425988737,
        "alt_km": 35747.307763172765,
        "timestamp": "2025-12-25T22:42:17.276483+00:00",
        "meta_object_name": "BEIDOU-2 G4 (C04)",
        "meta_object_id": "2010-057A",
        "meta_epoch": "2025-12-25T19:04:40.718208",
        "meta_mean_motion": 1.0027141,
        "meta_eccentricity": 0.001045,
        "meta_inclination": 3.2148,
        "meta_ra_of_asc_node": 69.8888,
        "meta_arg_of_pericenter": 194.0631,
        "meta_mean_anomaly": 276.8503,
        "meta_ephemeris_type": 0,
        "meta_classification_type": "U",
        "meta_norad_cat_id": 37210,
        "meta_element_set_no": 999,
        "meta_rev_at_epoch": 5555,
        "meta_bstar": 0,
        "meta_mean_motion_dot": -9.1e-07,
        "meta_mean_motion_ddot": 0,
        "tle_line1": "1 37210U 10057A   25359.79491572 -.00000091  00000+0  00000+0 0  9993",
        "tle_line2": "2 37210   3.2148  69.8888 0010450 194.0631 276.8503  1.00271410 55551"
      },
      "geometry": {
        "type": "Point",
        "coordinates": [
          -124.68626425988737,
          0.798727686314029
        ]
      }
    },
    {
      "type": "Feature",
      "properties": {
        "norad_id": 37256,
        "name": "BEIDOU-2 IGSO-2 (C07)",
        "group": "beidou",
        "lat": -47.894495551930525,
        "lon": -176.35134854686058,
        "alt_km": 35667.49128941197,
        "timestamp": "2025-12-25T22:42:17.276497+00:00",
        "meta_object_name": "BEIDOU-2 IGSO-2 (C07)",
        "meta_object_id": "2010-068A",
        "meta_epoch": "2025-12-25T16:47:38.629824",
        "meta_mean_motion": 1.00282453,
        "meta_eccentricity": 0.0048452,
        "meta_inclination": 47.8622,
        "meta_ra_of_asc_node": 273.9905,
        "meta_arg_of_pericenter": 216.1586,
        "meta_mean_anomaly": 324.3055,
        "meta_ephemeris_type": 0,
        "meta_classification_type": "U",
        "meta_norad_cat_id": 37256,
        "meta_element_set_no": 999,
        "meta_rev_at_epoch": 5505,
        "meta_bstar": 0,
        "meta_mean_motion_dot": -1.97e-06,
        "meta_mean_motion_ddot": 0,
        "tle_line1": "1 37256U 10068A   25359.69975266 -.00000197  00000+0  00000+0 0  9998",
        "tle_line2": "2 37256  47.8622 273.9905 0048452 216.1586 324.3055  1.00282453 55053"
      },
      "geometry": {
        "type": "Point",
        "coordinates": [
          -176.35134854686058,
          -47.894495551930525
        ]
      }
    },
    {
      "type": "Feature",
      "properties": {
        "norad_id": 37384,
        "name": "BEIDOU-2 IGSO-3 (C08)",
        "group": "beidou",
        "lat": 34.36055064318544,
        "lon": -159.35117786946793,
        "alt_km": 35683.43200915743,
        "timestamp": "2025-12-25T22:42:17.276510+00:00",
        "meta_object_name": "BEIDOU-2 IGSO-3 (C08)",
        "meta_object_id": "2011-013A",
        "meta_epoch": "2025-12-24T13:36:08.179776",
        "meta_mean_motion": 1.00268125,
        "meta_eccentricity": 0.00352821,
        "meta_inclination": 62.1584,
        "meta_ra_of_asc_node": 41.8043,
        "meta_arg_of_pericenter": 187.8377,
        "meta_mean_anomaly": 174.9924,
        "meta_ephemeris_type": 0,
        "meta_classification_type": "U",
        "meta_norad_cat_id": 37384,
        "meta_element_set_no": 999,
        "meta_rev_at_epoch": 5391,
        "meta_bstar": 0,
        "meta_mean_motion_dot": -1.63e-06,
        "meta_mean_motion_ddot": 0,
        "tle_line1": "1 37384U 11013A   25358.56676134 -.00000163  00000+0  00000+0 0  9991",
        "tle_line2": "2 37384  62.1584  41.8043 0035282 187.8377 174.9924  1.00268125 53913"
      },
      "geometry": {
        "type": "Point",
        "coordinates": [
          -159.35117786946793,
          34.36055064318544
        ]
      }
    },
    {
      "type": "Feature",
      "properties": {
        "norad_id": 37763,
        "name": "BEIDOU-2 IGSO-4 (C09)",
        "group": "beidou",
        "lat": 3.2988626537982833,
        "lon": 169.5695275068452,
        "alt_km": 36215.686197906456,
        "timestamp": "2025-12-25T22:42:17.276523+00:00",
        "meta_object_name": "BEIDOU-2 IGSO-4 (C09)",
        "meta_object_id": "2011-038A",
        "meta_epoch": "2025-12-21T10:06:26.864064",
        "meta_mean_motion": 1.00280083,
        "meta_eccentricity": 0.01491557,
        "meta_inclination": 54.5854,
        "meta_ra_of_asc_node": 167.2693,
        "meta_arg_of_pericenter": 230.0944,
        "meta_mean_anomaly": 299.1265,
        "meta_ephemeris_type": 0,
        "meta_classification_type": "U",
        "meta_norad_cat_id": 37763,
        "meta_element_set_no": 999,
        "meta_rev_at_epoch": 5286,
        "meta_bstar": 0,
        "meta_mean_motion_dot": 5.9e-07,
        "meta_mean_motion_ddot": 0,
        "tle_line1": "1 37763U 11038A   25355.42114426  .00000059  00000+0  00000+0 0  9995",
        "tle_line2": "2 37763  54.5854 167.2693 0149155 230.0944 299.1265  1.00280083 52867"
      },
      "geometry": {
        "type": "Point",
        "coordinates": [
          169.5695275068452,
          3.2988626537982833
        ]
      }
    },
    {
      "type": "Feature",
      "properties": {
        "norad_id": 37948,
        "name": "BEIDOU-2 IGSO-5 (C10)",
        "group": "beidou",
        "lat": -46.15134519665575,
        "lon": 163.1520735634326,
        "alt_km": 35402.26302021545,
        "timestamp": "2025-12-25T22:42:17.276535+00:00",
        "meta_object_name": "BEIDOU-2 IGSO-5 (C10)",
        "meta_object_id": "2011-073A",
        "meta_epoch": "2025-12-25T17:46:48.300384",
        "meta_mean_motion": 1.00288091,
        "meta_eccentricity": 0.0109669,
        "meta_inclination": 47.9959,
        "meta_ra_of_asc_node": 273.6993,
        "meta_arg_of_pericenter": 222.1113,
        "meta_mean_anomaly": 319.0848,
        "meta_ephemeris_type": 0,
        "meta_classification_type": "U",
        "meta_norad_cat_id": 37948,
        "meta_element_set_no": 999,
        "meta_rev_at_epoch": 5139,
        "meta_bstar": 0,
        "meta_mean_motion_dot": -1.42e-06,
        "meta_mean_motion_ddot": 0,
        "tle_line1": "1 37948U 11073A   25359.74083681 -.00000142  00000+0  00000+0 0  9990",
        "tle_line2": "2 37948  47.9959 273.6993 0109669 222.1113 319.0848  1.00288091 51398"
      },
      "geometry": {
        "type": "Point",
        "coordinates": [
          163.1520735634326,
          -46.15134519665575
        ]
      }
    },
    {
      "type": "Feature",
      "properties": {
        "norad_id": 38091,
        "name": "BEIDOU-2 G5 (C05)",
        "group": "beidou",
        "lat": 2.822120573657434,
        "lon": 133.92949225280813,
        "alt_km": 35840.54164466701,
        "timestamp": "2025-12-25T22:42:17.276547+00:00",
        "meta_object_name": "BEIDOU-2 G5 (C05)",
        "meta_object_id": "2012-008A",
        "meta_epoch": "2025-12-25T18:43:03.843840",
        "meta_mean_motion": 1.0027007,
        "meta_eccentricity": 0.0013113,
        "meta_inclination": 3.1396,
        "meta_ra_of_asc_node": 70.6604,
        "meta_arg_of_pericenter": 232.2167,
        "meta_mean_anomaly": 131.1529,
        "meta_ephemeris_type": 0,
        "meta_classification_type": "U",
        "meta_norad_cat_id": 38091,
        "meta_element_set_no": 999,
        "meta_rev_at_epoch": 5063,
        "meta_bstar": 0,
        "meta_mean_motion_dot": 7.8e-07,
        "meta_mean_motion_ddot": 0,
        "tle_line1": "1 38091U 12008A   25359.77990560  .00000078  00000+0  00000+0 0  9992",
        "tle_line2": "2 38091   3.1396  70.6604 0013113 232.2167 131.1529  1.00270070 50633"
      },
      "geometry": {
        "type": "Point",
        "coordinates": [
          133.92949225280813,
          2.822120573657434
        ]
      }
    }
  ]
}